1 08820U 76039A   03252.82863522 -.00000011  00000-0  10000-3 0  9561
2 08820 109.8120 210.5653 0044462 283.1661  76.3906  6.38664332382465
